1 12994U 81119A   22055.25368800 -.00000186  00000-0  00000-0 0  9997
2 12994  13.4131 338.5690 0029846 217.3885 337.7478  0.99465090111045
1 12994U 81119A   22056.26299176 -.00000174  00000-0  00000+0 0  9994
2 12994  13.4118 338.5603 0029803 217.3607 339.1941  0.99464768111108
1 12994U 81119A   22057.26197815 -.00000161  00000-0  00000-0 0  9999
2 12994  13.4106 338.5516 0029758 217.3273 336.9508  0.99464474111069
1 12994U 81119A   22058.26614035 -.00000149  00000-0  00000+0 0  9993
2 12994  13.4094 338.5429 0029717 217.3103 336.5424  0.99464171111129
1 12994U 81119A   22058.35188125 -.00000147  00000-0  00000-0 0  9998
2 12994  13.4093 338.5422 0029699 217.2610   7.2939  0.99464145111070
1 12994U 81119A   22059.36542458 -.00000134  00000-0  00000-0 0  9999
2 12994  13.4080 338.5335 0029690 217.3196  10.1693  0.99463890111087
1 12994U 81119A   22060.35952135 -.00000119  00000-0  00000+0 0  9999
2 12994  13.4068 338.5250 0029655 217.3215   6.1368  0.99463666111144
1 12994U 81119A   22060.35952135 -.00000119  00000-0  00000-0 0  9990
2 12994  13.4068 338.5250 0029655 217.3215   6.1368  0.99463666111098
1 12994U 81119A   22061.27866646 -.00000105  00000-0  00000-0 0  9998
2 12994  13.4056 338.5171 0029626 217.2670 335.3208  0.99463482111107
1 12994U 81119A   22062.28279449 -.00000088  00000-0  00000-0 0  9999
2 12994  13.4043 338.5086 0029613 217.2418 334.9053  0.99463300111117
1 12994U 81119A   22063.34192741 -.00000069  00000-0  00000+0 0  9994
2 12994  13.4030 338.4996 0029588 217.1686 354.2333  0.99463150111174
1 12994U 81119A   22063.34192741 -.00000069  00000-0  00000-0 0  9995
2 12994  13.4030 338.4996 0029588 217.1686 354.2333  0.99463150111129
1 12994U 81119A   22064.21948818 -.00000053  00000-0  00000-0 0  9999
2 12994  13.4019 338.4922 0029577 217.1136 308.5249  0.99463040111130
1 12994U 81119A   22064.33795646 -.00000051  00000-0  00000-0 0  9999
2 12994  13.4018 338.4912 0029568 217.0996 350.9595  0.99463020111134
1 12994U 81119A   22065.40664644 -.00000032  00000-0  00000+0 0  9999
2 12994  13.4004 338.4823 0029533 216.9690  13.7648  0.99462917111194
1 12994U 81119A   22065.40664644 -.00000032  00000-0  00000-0 0  9990
2 12994  13.4004 338.4823 0029533 216.9690  13.7648  0.99462917111149
1 12994U 81119A   22066.41759042 -.00000014  00000-0  00000-0 0  9999
2 12994  13.3991 338.4738 0029513 216.8736  15.8588  0.99462900111155
1 12994U 81119A   22067.43133336  .00000003  00000-0  00000+0 0  9990
2 12994  13.3978 338.4653 0029495 216.7785  18.9546  0.99462917111211
1 12994U 81119A   22067.43133336  .00000003  00000-0  00000-0 0  9991
2 12994  13.3978 338.4653 0029495 216.7785  18.9546  0.99462917111165
1 12994U 81119A   22068.34143963  .00000018  00000-0  00000-0 0  9995
2 12994  13.3966 338.4577 0029495 216.7392 344.8835  0.99462939111178
1 12994U 81119A   22068.62988148  .00000022  00000-0  00000-0 0  9993
2 12994  13.3963 338.4553 0029501 216.7432  88.1649  0.99462965111172
1 12994U 81119A   22069.36505845  .00000032  00000-0  00000-0 0  9995
2 12994  13.3953 338.4492 0029498 216.7243 351.4355  0.99463027111189
1 12994U 81119A   22070.36594931  .00000045  00000-0  00000+0 0  9994
2 12994  13.3941 338.4408 0029495 216.6639 349.8946  0.99463147111245
1 12994U 81119A   22070.36594931  .00000045  00000-0  00000-0 0  9995
2 12994  13.3941 338.4408 0029495 216.6639 349.8946  0.99463147111199
1 12994U 81119A   22071.38453753  .00000057  00000-0  00000-0 0  9997
2 12994  13.3928 338.4323 0029493 216.6117 354.6825  0.99463296111206
1 12994U 81119A   22072.39832594  .00000066  00000-0  00000+0 0  9992
2 12994  13.3915 338.4238 0029492 216.5913 357.7212  0.99463495111260
1 12994U 81119A   22072.39832594  .00000066  00000-0  00000-0 0  9993
2 12994  13.3915 338.4238 0029492 216.5913 357.7212  0.99463495111215
1 12994U 81119A   22073.41344347  .00000073  00000-0  00000-0 0  9999
2 12994  13.3902 338.4153 0029489 216.5681   1.2390  0.99463725111220
1 12994U 81119A   22074.39169431  .00000079  00000-0  00000-0 0  9992
2 12994  13.3890 338.4071 0029490 216.5783 351.5241  0.99464011111236
1 12994U 81119A   22075.07867675  .00000082  00000-0  00000+0 0  9996
2 12994  13.3881 338.4014 0029484 216.5564 237.5427  0.99464203111291
1 12994U 81119A   22075.41587794  .00000083  00000-0  00000-0 0  9997
2 12994  13.3877 338.3985 0029477 216.4744 358.3705  0.99464284111248
1 12994U 81119A   22076.39652000  .00000085  00000-0  00000-0 0  9990
2 12994  13.3864 338.3904 0029469 216.4315 349.5667  0.99464616111259
1 12994U 81119A   22077.30314748  .00000085  00000-0  00000+0 0  9995
2 12994  13.3853 338.3828 0029460 216.4098 314.2389  0.99464937111314
1 12994U 81119A   22077.41962299  .00000085  00000-0  00000-0 0  9998
2 12994  13.3852 338.3818 0029465 216.4221 355.9347  0.99464977111269
1 12994U 81119A   22078.48531375  .00000083  00000-0  00000-0 0  9991
2 12994  13.3838 338.3730 0029454 216.3890  17.5778  0.99465373111276
1 12994U 81119A   22079.35332611  .00000079  00000-0  00000-0 0  9995
2 12994  13.3827 338.3657 0029441 216.3653 328.4272  0.99465725111280
1 12994U 81119A   22080.34348281  .00000073  00000-0  00000-0 0  9990
2 12994  13.3815 338.3574 0029429 216.3409 323.0168  0.99466127111293
1 12994U 81119A   22080.36021575  .00000073  00000-0  00000-0 0  9996
2 12994  13.3815 338.3573 0029428 216.3375 329.0123  0.99466138111292
1 12994U 81119A   22081.39381508  .00000064  00000-0  00000+0 0  9994
2 12994  13.3802 338.3486 0029414 216.3163 339.1571  0.99466581111359
1 12994U 81119A   22081.39381508  .00000064  00000-0  00000-0 0  9995
2 12994  13.3802 338.3486 0029414 216.3163 339.1571  0.99466581111304
1 12994U 81119A   22082.39154986  .00000054  00000-0  00000-0 0  9993
2 12994  13.3789 338.3401 0029399 216.2981 336.4574  0.99467009111314
1 12994U 81119A   22083.33820389  .00000041  00000-0  00000-0 0  9991
2 12994  13.3777 338.3321 0029387 216.3061 315.4401  0.99467389111327
1 12994U 81119A   22084.38907503  .00000025  00000-0  00000+0 0  9992
2 12994  13.3764 338.3231 0029371 216.3039 331.7574  0.99467889111384
1 12994U 81119A   22084.38907503  .00000025  00000-0  00000-0 0  9993
2 12994  13.3764 338.3231 0029371 216.3039 331.7574  0.99467889111339
1 12994U 81119A   22085.37782411  .00000008  00000-0  00000-0 0  9993
2 12994  13.3752 338.3147 0029347 216.2172 325.9138  0.99468326111341
1 12994U 81119A   22085.52920508  .00000006  00000-0  00000-0 0  9999
2 12994  13.3750 338.3134 0029337 216.1671  20.1729  0.99468384111341
1 12994U 81119A   22086.40660995 -.00000010  00000-0  00000+0 0  9993
2 12994  13.3740 338.3059 0029318 216.1078 334.4311  0.99468764111403
1 12994U 81119A   22086.40660995 -.00000010  00000-0  00000-0 0  9994
2 12994  13.3740 338.3059 0029318 216.1078 334.4311  0.99468764111357
1 12994U 81119A   22087.41874368 -.00000030  00000-0  00000-0 0  9999
2 12994  13.3727 338.2974 0029301 216.0312 336.9534  0.99469166111361
1 12994U 81119A   22088.44673802 -.00000050  00000-0  00000+0 0  9994
2 12994  13.3715 338.2888 0029287 215.9546 345.1562  0.99469545111423
1 12994U 81119A   22088.44673802 -.00000050  00000-0  00000-0 0  9995
2 12994  13.3715 338.2888 0029287 215.9546 345.1562  0.99469545111377
1 12994U 81119A   22089.43314404 -.00000069  00000-0  00000-0 0  9995
2 12994  13.3702 338.2805 0029278 215.8619 338.4857  0.99469938111381
1 12994U 81119A   22090.45300392 -.00000088  00000-0  00000+0 0  9990
2 12994  13.3690 338.2720 0029272 215.7722 343.7926  0.99470300111449
1 12994U 81119A   22090.45300392 -.00000089  00000-0  00000-0 0  9992
2 12994  13.3690 338.2720 0029272 215.7722 343.7926  0.99470300111393
1 12994U 81119A   22091.46298380 -.00000108  00000-0  00000-0 0  9999
2 12994  13.3677 338.2637 0029271 215.6762 345.5687  0.99470625111403
1 12994U 81119A   22092.47298156 -.00000127  00000-0  00000+0 0  9992
2 12994  13.3664 338.2553 0029270 215.5841 347.3481  0.99470912111469
1 12994U 81119A   22092.47298156 -.00000127  00000-0  00000-0 0  9993
2 12994  13.3664 338.2553 0029270 215.5841 347.3481  0.99470912111414
1 12994U 81119A   22093.46031000 -.00000146  00000-0  00000-0 0  9997
2 12994  13.3651 338.2472 0029278 215.4996 341.0025  0.99471151111420
1 12994U 81119A   22094.45257765 -.00000165  00000-0  00000-0 0  9996
2 12994  13.3638 338.2390 0029292 215.4565 336.3858  0.99471373111430
1 12994U 81119A   22095.41898015 -.00000183  00000-0  00000+0 0  9991
2 12994  13.3626 338.2311 0029304 215.3680 322.5523  0.99471542111491
1 12994U 81119A   22095.41898015 -.00000183  00000-0  00000-0 0  9992
2 12994  13.3626 338.2311 0029304 215.3680 322.5523  0.99471542111446
1 12994U 81119A   22096.42308189 -.00000202  00000-0  00000-0 0  9994
2 12994  13.3613 338.2228 0029316 215.2842 322.2152  0.99471682111452
1 12994U 81119A   22097.43207553 -.00000221  00000-0  00000-0 0  9990
2 12994  13.3599 338.2143 0029325 215.2393 323.5901  0.99471742111466
1 12994U 81119A   22097.43207553 -.00000221  00000-0  00000+0 0  9999
2 12994  13.3599 338.2143 0029325 215.2393 323.5901  0.99471742111512
1 12994U 81119A   22098.50429296 -.00000241  00000-0  00000-0 0  9991
2 12994  13.3586 338.2055 0029344 215.0919 347.7107  0.99471808111477
1 12994U 81119A   22099.49333041 -.00000257  00000-0  00000+0 0  9998
2 12994  13.3573 338.1973 0029363 215.0481 341.9385  0.99471777111532
1 12994U 81119A   22099.49333041 -.00000258  00000-0  00000-0 0  9990
2 12994  13.3573 338.1973 0029363 215.0481 341.9385  0.99471777111486
1 12994U 81119A   22100.49271995 -.00000274  00000-0  00000-0 0  9990
2 12994  13.3560 338.1891 0029384 214.9919 339.8874  0.99471738111495
1 12994U 81119A   22101.49124317 -.00000289  00000-0  00000-0 0  9992
2 12994  13.3547 338.1808 0029400 214.9261 337.5344  0.99471632111509
1 12994U 81119A   22102.48474115 -.00000301  00000-0  00000+0 0  9990
2 12994  13.3534 338.1727 0029411 214.8834 333.3588  0.99471487111560
1 12994U 81119A   22102.55927248 -.00000302  00000-0  00000-0 0  9990
2 12994  13.3533 338.1720 0029413 214.8833   0.0494  0.99471479111513
